OBJECT_NAME,OBJECT_ID,EPOCH,MEAN_MOTION,ECCENTRICITY,INCLINATION,RA_OF_ASC_NODE,ARG_OF_PERICENTER,MEAN_ANOMALY,EPHEMERIS_TYPE,CLASSIFICATION_TYPE,NORAD_CAT_ID,ELEMENT_SET_NO,REV_AT_EPOCH,BSTAR,MEAN_MOTION_DOT,MEAN_MOTION_DDOT
LEMUR-1,2014-033AL,2026-06-26T15:47:55.257216,14.85278992,.0049244,97.7884,327.2531,48.3449,312.1966,0,U,40044,999,64687,.21294E-3,.1813E-4,0
LEMUR-2-GREENBERG,2017-042N,2026-06-26T11:54:08.045280,15.31600683,.0007652,97.3818,358.0794,338.7473,21.3450,0,U,42837,999,48981,.53655238E-3,.16326E-3,0
LEMUR-2-ANDIS,2017-042P,2026-06-26T10:31:27.138720,15.35202027,.0007477,97.3678,358.2388,336.5153,23.5748,0,U,42838,999,48987,.6909164E-3,.23594E-3,0
LEMUR-2-MONSON,2017-042Q,2026-06-26T11:01:39.001152,15.28263966,.00054791,97.4079,358.0012,329.4896,30.6024,0,U,42839,999,48958,.64775082E-3,.17793E-3,0
LEMUR-2-FURIAUS,2017-042R,2026-06-26T11:54:32.924160,15.30543463,.00075229,97.3768,356.0139,39.2212,320.9573,0,U,42840,999,48963,.60139562E-3,.1772E-3,0
LEMUR-2-PETERG,2017-042S,2026-06-26T11:50:50.534016,15.34261175,.00027274,97.3989,2.5410,312.9018,47.1996,0,U,42841,999,48986,.69614925E-3,.23055E-3,0
LEMUR-2-DEMBITZ,2017-042T,2026-06-26T10:48:44.305920,15.30559376,.00059322,97.3823,358.9996,355.3862,4.7324,0,U,42842,999,48976,.56954285E-3,.16778E-3,0
LEMUR-2-ZACHARY,2017-042W,2026-06-26T11:35:04.625088,15.51052466,.00022781,97.3591,9.3214,347.0942,13.0251,0,U,42845,999,49064,.72398328E-3,.42179E-3,0
LEMUR-2-AMANDA-SVANTE,2021-034B,2026-06-26T11:40:41.928960,15.34834045,.00032456,97.5763,256.0197,182.7185,177.4041,0,U,48269,999,28248,.95855131E-3,.32396E-3,0
LEMUR-2-SPECIAL-K,2021-034F,2026-06-26T11:31:42.436992,15.67240927,.00049638,97.5654,265.0279,223.9107,136.1759,0,U,48273,999,28314,.16348064E-2,.178753E-2,0
LEMUR-2-EMBRIONOVIS,2023-084AQ,2026-06-26T09:03:34.103520,15.37769981,.00074552,97.6293,321.9310,282.0427,77.9981,0,U,56970,999,16909,.39005781E-3,.14408E-3,0
LEMUR-2-DEVERILL-M-T,2023-100F,2026-06-26T14:11:40.886016,15.40198630,.00054196,99.4471,219.0675,17.3913,342.7512,0,U,57391,999,16269,.62015803E-3,.24855E-3,0
LEMUR-2-BASS,2023-174D,2026-06-26T11:34:55.644672,15.43391689,.00080866,97.3852,262.3258,133.8320,226.3598,0,U,58259,999,14679,.41612563E-3,.18535E-3,0
LEMUR-2-JK0903EM1407,2023-174CJ,2026-06-26T11:50:23.713728,15.52141921,.00051391,97.3932,268.2273,92.8133,267.3708,0,U,58336,999,14717,.46875265E-3,.28318E-3,0
LEMUR-2-MJR092620,2023-174CN,2026-06-26T13:11:46.707360,15.45206009,.00068829,97.3982,267.7528,90.2557,269.9481,0,U,58340,999,14709,.42165107E-3,.1997E-3,0
LEMUR-2-NIMBUS2000,2024-022A,2026-06-26T13:32:54.624768,15.40360089,.00102616,97.4104,27.6853,87.5376,272.7045,0,U,58899,999,13371,.51429415E-3,.20745E-3,0
LEMUR-2-VALHALLA,2024-022B,2026-06-26T13:30:38.242368,15.39944276,.00107654,97.4102,27.6688,83.6377,276.6094,0,U,58900,999,13371,.39740116E-3,.15785E-3,0
LEMUR-2-CAEL,2024-022E,2026-06-26T13:33:17.942400,15.41265834,.00089405,97.4085,28.6232,69.9227,290.2981,0,U,58903,999,13378,.4038077E-3,.16749E-3,0
LEMUR-2-JOHNNYTRUONG,2024-043BA,2026-06-26T09:10:32.896416,15.61135676,.00048621,97.5373,329.6593,148.7213,211.4334,0,U,59146,999,12947,.51226314E-3,.43273E-3,0
LEMUR-2-TOMATOKECHUP,2024-149D,2026-06-26T11:42:17.938368,15.36216015,.00022463,97.3804,259.5586,157.4796,202.6547,0,U,60471,999,10359,.31985602E-3,.11213E-3,0
LEMUR-2-STELLA,2024-149BT,2026-06-26T11:31:02.779392,15.11994677,.00014628,97.6743,259.9760,97.7350,262.4046,0,U,60533,999,10190,.63668061E-3,.10872E-3,0
LEMUR-2-MARHISYAM,2024-149BW,2026-06-26T04:46:16.190400,15.11425100,.00032748,97.6882,260.1519,102.0033,258.1564,0,U,60536,999,10184,.67705108E-3,.11386E-3,0
LEMUR-2-AHMED-ASRAR,2024-149DN,2026-06-26T11:43:51.111264,15.12911302,.00010112,97.7009,262.5723,23.3852,336.7424,0,U,60576,999,10197,.68045971E-3,.11926E-3,0
LEMUR-2-LLOYD,2024-149DP,2026-06-26T04:35:25.848096,15.09400718,.0005087,97.6746,258.3252,117.9672,242.2072,0,U,60577,999,10175,.7213097E-3,.11477E-3,0
LEMUR-2-SQUIRRELCOMM,2024-149DQ,2026-06-26T11:36:26.006976,15.07252624,.00059036,97.6718,258.3657,36.6450,323.5180,0,U,60578,999,10180,.42191255E-3,.6301E-4,0
LEMUR-2-SIERRINI,2024-149DR,2026-06-26T11:44:13.401600,15.11133513,.00064664,97.6847,260.1226,138.3856,221.7866,0,U,60579,999,10186,.6846367E-3,.11425E-3,0
LEMUR-2-WILSON,2025-009CP,2026-06-26T12:44:49.498944,14.95202566,.00035455,97.7027,255.8318,30.7514,329.3914,0,U,62694,999,7875,.17277566E-3,.1842E-4,0
LEMUR-2-STAR-FOX,2025-009CR,2026-06-26T11:35:00.075264,15.02613406,.00043592,97.6954,259.0244,92.8194,267.3529,0,U,62696,999,7895,.41582235E-3,.5479E-4,0
LEMUR-2-ARIANNA,2025-009CU,2026-06-26T11:32:46.142304,15.02608252,.00047437,97.6897,258.7900,97.1255,263.0510,0,U,62699,999,7895,.59132278E-3,.7819E-4,0
